[
    {
        "Altitude(m)": 705348.2270785209,
        "Argument of Periapsis(deg)": 0.006834072711976239,
        "Eccentricity": 0.0,
        "Inclination(deg)": 45.0,
        "Latitude(deg)": 36.026716835944214,
        "Longitude(deg)": -74.12029410359585,
        "Mean Anomaly(deg)": -303.9891700115115,
        "RAAN(deg)": 339.9935488351251,
        "Satellite Name": "Constellation 1 1499",
        "Satellite Number": 1499,
        "Semi-Major Axis(m)": 7083131.272910544,
        "Time(s)": 114
    },
    {
        "Altitude(m)": 705354.1008606615,
        "Argument of Periapsis(deg)": 0.006894020718221645,
        "Eccentricity": 0.0,
        "Inclination(deg)": 45.0,
        "Latitude(deg)": 36.05644674347472,
        "Longitude(deg)": -74.05898872838135,
        "Mean Anomaly(deg)": -303.9284688712616,
        "RAAN(deg)": 339.9934922459595,
        "Satellite Name": "Constellation 1 1499",
        "Satellite Number": 1499,
        "Semi-Major Axis(m)": 7083131.272910544,
        "Time(s)": 115
    },
    {
        "Altitude(m)": 705359.9717976365,
        "Argument of Periapsis(deg)": 0.006953968724467052,
        "Eccentricity": 0.0,
        "Inclination(deg)": 45.0,
        "Latitude(deg)": 36.08614079366018,
        "Longitude(deg)": -73.9976341925505,
        "Mean Anomaly(deg)": -303.86776773101167,
        "RAAN(deg)": 339.99343565679396,
        "Satellite Name": "Constellation 1 1499",
        "Satellite Number": 1499,
        "Semi-Major Axis(m)": 7083131.272910544,
        "Time(s)": 116
    },
    {
        "Altitude(m)": 705365.839852503,
        "Argument of Periapsis(deg)": 0.007013916730712457,
        "Eccentricity": 0.0,
        "Inclination(deg)": 45.0,
        "Latitude(deg)": 36.11579892129446,
        "Longitude(deg)": -73.93623046489957,
        "Mean Anomaly(deg)": -303.8070665907619,
        "RAAN(deg)": 339.9933790676284,
        "Satellite Name": "Constellation 1 1499",
        "Satellite Number": 1499,
        "Semi-Major Axis(m)": 7083131.272910544,
        "Time(s)": 117
    },
    {
        "Altitude(m)": 705371.7049883478,
        "Argument of Periapsis(deg)": 0.007073864736957864,
        "Eccentricity": 0.0,
        "Inclination(deg)": 45.0,
        "Latitude(deg)": 36.14542106111539,
        "Longitude(deg)": -73.87477751447197,
        "Mean Anomaly(deg)": -303.74636545051186,
        "RAAN(deg)": 339.99332247846286,
        "Satellite Name": "Constellation 1 1499",
        "Satellite Number": 1499,
        "Semi-Major Axis(m)": 7083131.272910544,
        "Time(s)": 118
    },
    {
        "Altitude(m)": 705377.5671682875,
        "Argument of Periapsis(deg)": 0.0071338127432032696,
        "Eccentricity": 0.0,
        "Inclination(deg)": 45.0,
        "Latitude(deg)": 36.17500714780462,
        "Longitude(deg)": -73.81327547865743,
        "Mean Anomaly(deg)": -303.68566431026204,
        "RAAN(deg)": 339.9932658892973,
        "Satellite Name": "Constellation 1 1499",
        "Satellite Number": 1499,
        "Semi-Major Axis(m)": 7083131.272910544,
        "Time(s)": 119
    },
    {
        "Altitude(m)": 705383.426355482,
        "Argument of Periapsis(deg)": 0.007193760749448674,
        "Eccentricity": 0.0,
        "Inclination(deg)": 45.0,
        "Latitude(deg)": 36.20455711598858,
        "Longitude(deg)": -73.75172399080496,
        "Mean Anomaly(deg)": -303.62496317001217,
        "RAAN(deg)": 339.99320930013164,
        "Satellite Name": "Constellation 1 1499",
        "Satellite Number": 1499,
        "Semi-Major Axis(m)": 7083131.272910544,
        "Time(s)": 120
    },
    {
        "Altitude(m)": 705389.282513104,
        "Argument of Periapsis(deg)": 0.007253708755694079,
        "Eccentricity": 0.0,
        "Inclination(deg)": 45.0,
        "Latitude(deg)": 36.23407090023787,
        "Longitude(deg)": -73.69012318880598,
        "Mean Anomaly(deg)": -303.56426202976223,
        "RAAN(deg)": 339.9931527109661,
        "Satellite Name": "Constellation 1 1499",
        "Satellite Number": 1499,
        "Semi-Major Axis(m)": 7083131.272910544,
        "Time(s)": 121
    },
    {
        "Altitude(m)": 705395.1356043717,
        "Argument of Periapsis(deg)": 0.0073136567619394854,
        "Eccentricity": 0.0,
        "Inclination(deg)": 45.0,
        "Latitude(deg)": 36.26354843506811,
        "Longitude(deg)": -73.62847304270812,
        "Mean Anomaly(deg)": -303.50356088951236,
        "RAAN(deg)": 339.99309612180053,
        "Satellite Name": "Constellation 1 1499",
        "Satellite Number": 1499,
        "Semi-Major Axis(m)": 7083131.272910544,
        "Time(s)": 122
    },
    {
        "Altitude(m)": 705400.9855925255,
        "Argument of Periapsis(deg)": 0.0073736047681848904,
        "Eccentricity": 0.0,
        "Inclination(deg)": 45.0,
        "Latitude(deg)": 36.29298965494018,
        "Longitude(deg)": -73.56677352281278,
        "Mean Anomaly(deg)": -303.4428597492624,
        "RAAN(deg)": 339.993039532635,
        "Satellite Name": "Constellation 1 1499",
        "Satellite Number": 1499,
        "Semi-Major Axis(m)": 7083131.272910544,
        "Time(s)": 123
    },
    {
        "Altitude(m)": 705406.8324408367,
        "Argument of Periapsis(deg)": 0.007433552774430298,
        "Eccentricity": 0.0,
        "Inclination(deg)": 45.0,
        "Latitude(deg)": 36.322394494260124,
        "Longitude(deg)": -73.50502459967761,
        "Mean Anomaly(deg)": -303.38215860901255,
        "RAAN(deg)": 339.99298294346943,
        "Satellite Name": "Constellation 1 1499",
        "Satellite Number": 1499,
        "Semi-Major Axis(m)": 7083131.272910544,
        "Time(s)": 124
    },
    {
        "Altitude(m)": 705412.6761126128,
        "Argument of Periapsis(deg)": 0.007493500780675703,
        "Eccentricity": 0.0,
        "Inclination(deg)": 45.0,
        "Latitude(deg)": 36.35176288737985,
        "Longitude(deg)": -73.44322624411711,
        "Mean Anomaly(deg)": -303.3214574687626,
        "RAAN(deg)": 339.99292635430385,
        "Satellite Name": "Constellation 1 1499",
        "Satellite Number": 1499,
        "Semi-Major Axis(m)": 7083131.272910544,
        "Time(s)": 125
    },
    {
        "Altitude(m)": 705418.516571195,
        "Argument of Periapsis(deg)": 0.007553448786921108,
        "Eccentricity": 0.0,
        "Inclination(deg)": 45.0,
        "Latitude(deg)": 36.38109476859694,
        "Longitude(deg)": -73.38137859530094,
        "Mean Anomaly(deg)": -303.26075632851274,
        "RAAN(deg)": 339.99286976513827,
        "Satellite Name": "Constellation 1 1499",
        "Satellite Number": 1499,
        "Semi-Major Axis(m)": 7083131.272910544,
        "Time(s)": 126
    },
    {
        "Altitude(m)": 705424.3537799456,
        "Argument of Periapsis(deg)": 0.007613396793166514,
        "Eccentricity": 0.0,
        "Inclination(deg)": 45.0,
        "Latitude(deg)": 36.41039007215547,
        "Longitude(deg)": -73.31948128836784,
        "Mean Anomaly(deg)": -303.2000551882628,
        "RAAN(deg)": 339.9928131759727,
        "Satellite Name": "Constellation 1 1499",
        "Satellite Number": 1499,
        "Semi-Major Axis(m)": 7083131.272910544,
        "Time(s)": 127
    },
    {
        "Altitude(m)": 705430.1877022726,
        "Argument of Periapsis(deg)": 0.007673344799411918,
        "Eccentricity": 0.0,
        "Inclination(deg)": 45.0,
        "Latitude(deg)": 36.439648732245814,
        "Longitude(deg)": -73.25753446300844,
        "Mean Anomaly(deg)": -303.13935404801293,
        "RAAN(deg)": 339.99275658680716,
        "Satellite Name": "Constellation 1 1499",
        "Satellite Number": 1499,
        "Semi-Major Axis(m)": 7083131.272910544,
        "Time(s)": 128
    },
    {
        "Altitude(m)": 705436.0183016014,
        "Argument of Periapsis(deg)": 0.007733292805657325,
        "Eccentricity": 0.0,
        "Inclination(deg)": 45.0,
        "Latitude(deg)": 36.4688706830052,
        "Longitude(deg)": -73.1955380910786,
        "Mean Anomaly(deg)": -303.078652907763,
        "RAAN(deg)": 339.9926999976415,
        "Satellite Name": "Constellation 1 1499",
        "Satellite Number": 1499,
        "Semi-Major Axis(m)": 7083131.272910544,
        "Time(s)": 129
    },
    {
        "Altitude(m)": 705441.8455414022,
        "Argument of Periapsis(deg)": 0.00779324081190273,
        "Eccentricity": 0.0,
        "Inclination(deg)": 45.0,
        "Latitude(deg)": 36.49805585851765,
        "Longitude(deg)": -73.13349214469848,
        "Mean Anomaly(deg)": -303.0179517675131,
        "RAAN(deg)": 339.992643408476,
        "Satellite Name": "Constellation 1 1499",
        "Satellite Number": 1499,
        "Semi-Major Axis(m)": 7083131.272910544,
        "Time(s)": 130
    },
    {
        "Altitude(m)": 705447.6693851686,
        "Argument of Periapsis(deg)": 0.007853188818148135,
        "Eccentricity": 0.0,
        "Inclination(deg)": 45.0,
        "Latitude(deg)": 36.52720419281486,
        "Longitude(deg)": -73.07139659625311,
        "Mean Anomaly(deg)": -302.95725062726325,
        "RAAN(deg)": 339.9925868193104,
        "Satellite Name": "Constellation 1 1499",
        "Satellite Number": 1499,
        "Semi-Major Axis(m)": 7083131.272910544,
        "Time(s)": 131
    },
    {
        "Altitude(m)": 705453.4897964357,
        "Argument of Periapsis(deg)": 0.007913136824393542,
        "Eccentricity": 0.0,
        "Inclination(deg)": 45.0,
        "Latitude(deg)": 36.55631561987572,
        "Longitude(deg)": -73.00925141839431,
        "Mean Anomaly(deg)": -302.8965494870133,
        "RAAN(deg)": 339.99253023014484,
        "Satellite Name": "Constellation 1 1499",
        "Satellite Number": 1499,
        "Semi-Major Axis(m)": 7083131.272910544,
        "Time(s)": 132
    }
]